{"type": "FeatureCollection", "features": [ {"type": "Feature", "properties": {"norad_id": 64902, "name": "CO3D 2", "group": "resource", "lat": 78.55084883471277, "lon": 36.895351221655886, "alt_km": 497.3763140076762, "timestamp": "2025-12-26T23:26:41.811539+00:00", "meta": {"OBJECT_NAME": "CO3D 2", "OBJECT_ID": "2025-156D", "EPOCH": "2025-12-26T13:36:37.387296", "MEAN_MOTION": 15.20205411, "ECCENTRICITY": 8.063e-05, "INCLINATION": 97.4339, "RA_OF_ASC_NODE": 76.6347, "ARG_OF_PERICENTER": 62.3682, "MEAN_ANOMALY": 297.7635, "EPHEMERIS_TYPE": 0, "CLASSIFICATION_TYPE": "U", "NORAD_CAT_ID": 64902, "ELEMENT_SET_NO": 999, "REV_AT_EPOCH": 2330, "BSTAR": 0.00022918838, "MEAN_MOTION_DOT": 4.898e-05, "MEAN_MOTION_DDOT": 0}, "tle": {"line1": "1 64902U 25156D   25360.56709939  .00004898  00000+0  22919-3 0  9998", "line2": "2 64902  97.4339  76.6347 0000806  62.3682 297.7635 15.20205411 23300"}}, "geometry": {"type": "Point", "coordinates": [36.895351221655886, 78.55084883471277]}}, {"type": "Feature", "properties": {"norad_id": 64903, "name": "CO3D 1", "group": "resource", "lat": 77.87960675851528, "lon": 39.5943386429278, "alt_km": 497.43872368520897, "timestamp": "2025-12-26T23:26:41.811548+00:00", "meta": {"OBJECT_NAME": "CO3D 1", "OBJECT_ID": "2025-156E", "EPOCH": "2025-12-26T12:02:03.647040", "MEAN_MOTION": 15.20191629, "ECCENTRICITY": 7.686e-05, "INCLINATION": 97.434, "RA_OF_ASC_NODE": 76.5713, "ARG_OF_PERICENTER": 74.426, "MEAN_ANOMALY": 285.706, "EPHEMERIS_TYPE": 0, "CLASSIFICATION_TYPE": "U", "NORAD_CAT_ID": 64903, "ELEMENT_SET_NO": 999, "REV_AT_EPOCH": 2329, "BSTAR": 0.0003276941, "MEAN_MOTION_DOT": 7.031e-05, "MEAN_MOTION_DDOT": 0}, "tle": {"line1": "1 64903U 25156E   25360.50143110  .00007031  00000+0  32769-3 0  9992", "line2": "2 64903  97.4340  76.5713 0000768  74.4260 285.7060 15.20191629 23294"}}, "geometry": {"type": "Point", "coordinates": [39.5943386429278, 77.87960675851528]}}, {"type": "Feature", "properties": {"norad_id": 66514, "name": "SENTINEL-6B", "group": "resource", "lat": -38.949407456021135, "lon": -26.07259151110895, "alt_km": 1339.0173048774886, "timestamp": "2025-12-26T23:26:41.811557+00:00", "meta": {"OBJECT_NAME": "SENTINEL-6B", "OBJECT_ID": "2025-264A", "EPOCH": "2025-12-26T18:32:03.290784", "MEAN_MOTION": 12.8092957, "ECCENTRICITY": 0.0007911, "INCLINATION": 66.0401, "RA_OF_ASC_NODE": 133.2883, "ARG_OF_PERICENTER": 269.9837, "MEAN_ANOMALY": 90.0272, "EPHEMERIS_TYPE": 0, "CLASSIFICATION_TYPE": "U", "NORAD_CAT_ID": 66514, "ELEMENT_SET_NO": 999, "REV_AT_EPOCH": 508, "BSTAR": 8.0357e-05, "MEAN_MOTION_DOT": -4.3e-07, "MEAN_MOTION_DDOT": 0}, "tle": {"line1": "1 66514U 25264A   25360.77226031 -.00000043  00000+0  80357-4 0  9999", "line2": "2 66514  66.0401 133.2883 0007911 269.9837  90.0272 12.80929570  5087"}}, "geometry": {"type": "Point", "coordinates": [-26.07259151110895, -38.949407456021135]}}]}